{
  "type": "FeatureCollection",
  "features": [
    {
      "type": "Feature",
      "properties": {
        "norad_id": 30860,
        "name": "FENGYUN 1C DEB",
        "group": "fengyun-1c-debris",
        "lat": 6.203123422736153,
        "lon": -104.54124565995359,
        "alt_km": 782.4301287100088,
        "timestamp": "2025-12-26T19:22:39.185926+00:00",
        "meta_object_name": "FENGYUN 1C DEB",
        "meta_object_id": "1999-025AWW",
        "meta_epoch": "2025-12-25T03:49:30.330048",
        "meta_mean_motion": 14.25584296,
        "meta_eccentricity": 0.00402123,
        "meta_inclination": 98.9041,
        "meta_ra_of_asc_node": 72.8095,
        "meta_arg_of_pericenter": 152.9896,
        "meta_mean_anomaly": 207.3388,
        "meta_ephemeris_type": 0,
        "meta_classification_type": "U",
        "meta_norad_cat_id": 30860,
        "meta_element_set_no": 999,
        "meta_rev_at_epoch": 96693,
        "meta_bstar": 0.0016146669,
        "meta_mean_motion_dot": 3.811e-05,
        "meta_mean_motion_ddot": 0,
        "tle_line1": "1 30860U 99025AWW 25359.15937882  .00003811  00000+0  16147-2 0  9992",
        "tle_line2": "2 30860  98.9041  72.8095 0040212 152.9896 207.3388 14.25584296966930"
      },
      "geometry": {
        "type": "Point",
        "coordinates": [
          -104.54124565995359,
          6.203123422736153
        ]
      }
    },
    {
      "type": "Feature",
      "properties": {
        "norad_id": 30862,
        "name": "FENGYUN 1C DEB",
        "group": "fengyun-1c-debris",
        "lat": 31.555077226721732,
        "lon": -82.15446584990659,
        "alt_km": 712.2188574519323,
        "timestamp": "2025-12-26T19:22:39.185937+00:00",
        "meta_object_name": "FENGYUN 1C DEB",
        "meta_object_id": "1999-025AWY",
        "meta_epoch": "2025-12-24T05:23:49.623360",
        "meta_mean_motion": 14.4330008,
        "meta_eccentricity": 0.00517482,
        "meta_inclination": 98.9562,
        "meta_ra_of_asc_node": 89.5738,
        "meta_arg_of_pericenter": 130.3353,
        "meta_mean_anomaly": 286.2619,
        "meta_ephemeris_type": 0,
        "meta_classification_type": "U",
        "meta_norad_cat_id": 30862,
        "meta_element_set_no": 999,
        "meta_rev_at_epoch": 96885,
        "meta_bstar": 0.0034051786,
        "meta_mean_motion_dot": 0.0001163,
        "meta_mean_motion_ddot": 0,
        "tle_line1": "1 30862U 99025AWY 25358.22487990  .00011630  00000+0  34052-2 0  9994",
        "tle_line2": "2 30862  98.9562  89.5738 0051748 130.3353 286.2619 14.43300080968856"
      },
      "geometry": {
        "type": "Point",
        "coordinates": [
          -82.15446584990659,
          31.555077226721732
        ]
      }
    },
    {
      "type": "Feature",
      "properties": {
        "norad_id": 30863,
        "name": "FENGYUN 1C DEB",
        "group": "fengyun-1c-debris",
        "lat": -67.9525034037159,
        "lon": -14.81628771733723,
        "alt_km": 893.443558438833,
        "timestamp": "2025-12-26T19:22:39.185947+00:00",
        "meta_object_name": "FENGYUN 1C DEB",
        "meta_object_id": "1999-025AWZ",
        "meta_epoch": "2025-12-21T07:26:52.161216",
        "meta_mean_motion": 12.40539027,
        "meta_eccentricity": 0.0877249,
        "meta_inclination": 99.1205,
        "meta_ra_of_asc_node": 184.3542,
        "meta_arg_of_pericenter": 232.3747,
        "meta_mean_anomaly": 314.6544,
        "meta_ephemeris_type": 0,
        "meta_classification_type": "U",
        "meta_norad_cat_id": 30863,
        "meta_element_set_no": 999,
        "meta_rev_at_epoch": 59846,
        "meta_bstar": 0.0027378,
        "meta_mean_motion_dot": 1.406e-05,
        "meta_mean_motion_ddot": 0,
        "tle_line1": "1 30863U 99025AWZ 25355.31032594  .00001406  00000+0  27378-2 0  9991",
        "tle_line2": "2 30863  99.1205 184.3542 0877249 232.3747 314.6544 12.40539027598462"
      },
      "geometry": {
        "type": "Point",
        "coordinates": [
          -14.81628771733723,
          -67.9525034037159
        ]
      }
    },
    {
      "type": "Feature",
      "properties": {
        "norad_id": 30867,
        "name": "FENGYUN 1C DEB",
        "group": "fengyun-1c-debris",
        "lat": 5.014333626078503,
        "lon": -94.42323644424762,
        "alt_km": 775.5925233303851,
        "timestamp": "2025-12-26T19:22:39.185958+00:00",
        "meta_object_name": "FENGYUN 1C DEB",
        "meta_object_id": "1999-025AXD",
        "meta_epoch": "2025-12-26T11:12:10.399392",
        "meta_mean_motion": 14.28151494,
        "meta_eccentricity": 0.00532752,
        "meta_inclination": 97.8766,
        "meta_ra_of_asc_node": 265.9653,
        "meta_arg_of_pericenter": 315.9723,
        "meta_mean_anomaly": 98.5555,
        "meta_ephemeris_type": 0,
        "meta_classification_type": "U",
        "meta_norad_cat_id": 30867,
        "meta_element_set_no": 999,
        "meta_rev_at_epoch": 96733,
        "meta_bstar": 0.0024548669,
        "meta_mean_motion_dot": 6.167e-05,
        "meta_mean_motion_ddot": 0,
        "tle_line1": "1 30867U 99025AXD 25360.46678703  .00006167  00000+0  24549-2 0  9991",
        "tle_line2": "2 30867  97.8766 265.9653 0053275 315.9723  98.5555 14.28151494967331"
      },
      "geometry": {
        "type": "Point",
        "coordinates": [
          -94.42323644424762,
          5.014333626078503
        ]
      }
    },
    {
      "type": "Feature",
      "properties": {
        "norad_id": 30868,
        "name": "FENGYUN 1C DEB",
        "group": "fengyun-1c-debris",
        "lat": 60.96626483677228,
        "lon": -137.4436316530274,
        "alt_km": 882.3864549196787,
        "timestamp": "2025-12-26T19:22:39.185969+00:00",
        "meta_object_name": "FENGYUN 1C DEB",
        "meta_object_id": "1999-025AXE",
        "meta_epoch": "2025-12-25T03:00:10.115712",
        "meta_mean_motion": 14.11126234,
        "meta_eccentricity": 0.01358087,
        "meta_inclination": 98.2628,
        "meta_ra_of_asc_node": 236.1837,
        "meta_arg_of_pericenter": 177.1984,
        "meta_mean_anomaly": 345.1428,
        "meta_ephemeris_type": 0,
        "meta_classification_type": "U",
        "meta_norad_cat_id": 30868,
        "meta_element_set_no": 999,
        "meta_rev_at_epoch": 96885,
        "meta_bstar": 0.00015734601,
        "meta_mean_motion_dot": 2.7e-06,
        "meta_mean_motion_ddot": 0,
        "tle_line1": "1 30868U 99025AXE 25359.12511708  .00000270  00000+0  15735-3 0  9991",
        "tle_line2": "2 30868  98.2628 236.1837 0135808 177.1984 345.1428 14.11126234968852"
      },
      "geometry": {
        "type": "Point",
        "coordinates": [
          -137.4436316530274,
          60.96626483677228
        ]
      }
    },
    {
      "type": "Feature",
      "properties": {
        "norad_id": 30872,
        "name": "FENGYUN 1C DEB",
        "group": "fengyun-1c-debris",
        "lat": -45.1371842616698,
        "lon": -135.17750631535944,
        "alt_km": 781.634398506073,
        "timestamp": "2025-12-26T19:22:39.185979+00:00",
        "meta_object_name": "FENGYUN 1C DEB",
        "meta_object_id": "1999-025AXJ",
        "meta_epoch": "2025-12-24T16:52:07.429728",
        "meta_mean_motion": 14.39483316,
        "meta_eccentricity": 0.00403873,
        "meta_inclination": 99.1918,
        "meta_ra_of_asc_node": 51.9309,
        "meta_arg_of_pericenter": 353.0106,
        "meta_mean_anomaly": 133.3238,
        "meta_ephemeris_type": 0,
        "meta_classification_type": "U",
        "meta_norad_cat_id": 30872,
        "meta_element_set_no": 999,
        "meta_rev_at_epoch": 97908,
        "meta_bstar": 0.00084489054,
        "meta_mean_motion_dot": 2.609e-05,
        "meta_mean_motion_ddot": 0,
        "tle_line1": "1 30872U 99025AXJ 25358.70286377  .00002609  00000+0  84489-3 0  9990",
        "tle_line2": "2 30872  99.1918  51.9309 0040387 353.0106 133.3238 14.39483316979084"
      },
      "geometry": {
        "type": "Point",
        "coordinates": [
          -135.17750631535944,
          -45.1371842616698
        ]
      }
    },
    {
      "type": "Feature",
      "properties": {
        "norad_id": 30873,
        "name": "FENGYUN 1C DEB",
        "group": "fengyun-1c-debris",
        "lat": -22.772617694781314,
        "lon": 177.07391790200245,
        "alt_km": 778.1237165255898,
        "timestamp": "2025-12-26T19:22:39.185989+00:00",
        "meta_object_name": "FENGYUN 1C DEB",
        "meta_object_id": "1999-025AXK",
        "meta_epoch": "2025-12-25T23:48:05.453856",
        "meta_mean_motion": 14.19149716,
        "meta_eccentricity": 0.01077411,
        "meta_inclination": 98.612,
        "meta_ra_of_asc_node": 359.9287,
        "meta_arg_of_pericenter": 250.1453,
        "meta_mean_anomaly": 108.8085,
        "meta_ephemeris_type": 0,
        "meta_classification_type": "U",
        "meta_norad_cat_id": 30873,
        "meta_element_set_no": 999,
        "meta_rev_at_epoch": 97380,
        "meta_bstar": 0.00018718205,
        "meta_mean_motion_dot": 3.71e-06,
        "meta_mean_motion_ddot": 0,
        "tle_line1": "1 30873U 99025AXK 25359.99172979  .00000371  00000+0  18718-3 0  9991",
        "tle_line2": "2 30873  98.6120 359.9287 0107741 250.1453 108.8085 14.19149716973802"
      },
      "geometry": {
        "type": "Point",
        "coordinates": [
          177.07391790200245,
          -22.772617694781314
        ]
      }
    }
  ]
}